OBJECT_NAME,OBJECT_ID,EPOCH,MEAN_MOTION,ECCENTRICITY,INCLINATION,RA_OF_ASC_NODE,ARG_OF_PERICENTER,MEAN_ANOMALY,EPHEMERIS_TYPE,CLASSIFICATION_TYPE,NORAD_CAT_ID,ELEMENT_SET_NO,REV_AT_EPOCH,BSTAR,MEAN_MOTION_DOT,MEAN_MOTION_DDOT
DUBAISAT-1,2009-041B,2026-07-02T08:25:37.590528,14.75149388,.00109022,98.0071,316.4441,29.3148,330.8670,0,U,35682,999,90733,.15962375E-3,.1027E-4,0
OCEANSAT-2,2009-051A,2026-07-02T13:39:24.186816,13.99659243,.00164663,98.2318,168.8852,190.2484,169.8349,0,U,35931,999,88148,-.12807479E-3,-.225E-5,0
WORLDVIEW-2 (WV-2),2009-055A,2026-07-02T14:41:06.693792,14.37904024,.00046886,98.4763,256.8507,161.6702,198.4655,0,U,35946,999,87786,.6819771E-4,.162E-5,0
SMOS,2009-059A,2026-07-02T13:09:08.692992,14.39781028,.00013058,98.4425,10.6579,86.9847,273.1491,0,U,36036,999,87566,.10552928E-3,.287E-5,0
YAOGAN-7,2009-069A,2026-07-02T15:49:47.178912,14.78025724,.00244371,98.0051,69.4298,352.8193,7.2664,0,U,36110,999,89191,.87168726E-4,.579E-5,0
TANDEM-X,2010-030A,2026-07-01T14:48:18.164160,15.19152803,.00017924,97.4457,190.1177,96.8129,263.3310,0,U,36605,999,88883,.31705549E-4,.599E-5,0
CARTOSAT-2B,2010-035A,2026-07-02T13:34:12.924768,14.78604570,.00120379,97.9944,234.0169,135.6802,224.5375,0,U,36795,999,86212,.15806894E-3,.1106E-4,0
YAOGAN-10,2010-038A,2026-07-02T15:48:08.457408,14.85398143,.00017552,97.8966,206.9393,85.4736,58.6693,0,U,36834,999,85950,.26794203E-3,.2253E-4,0
COSMO-SKYMED 4,2010-060A,2026-07-02T15:12:24.657408,14.82157546,.00014668,97.8884,7.0093,84.0675,276.0705,0,U,37216,999,84685,.32547447E-4,.207E-5,0
RESOURCESAT-2,2011-015A,2026-07-02T13:45:27.983520,14.21603664,.00108347,98.7638,250.9084,207.5276,152.5329,0,U,37387,999,78836,.74417119E-4,.119E-5,0
HAIYANG-2A,2011-043A,2026-07-01T05:39:57.502080,13.73990655,.0004752,99.3390,184.5963,61.7209,298.4419,0,U,37781,999,74858,.21773E-3,.161E-5,0
RASAT,2011-044D,2026-07-02T14:09:18.937728,14.68182954,.0021354,98.0586,274.7519,140.4618,332.9406,0,U,37791,999,79544,.18397731E-3,.1013E-4,0
SRMSAT,2011-058D,2026-07-02T13:30:11.390112,14.11578853,.00118212,19.9731,326.4081,13.5504,59.6043,0,U,37841,999,75999,.7282842E-4,.399E-5,0
PLEIADES 1A,2011-076F,2026-07-02T15:35:58.238304,14.58541588,.00017682,98.1977,258.5451,86.0988,81.8611,0,U,38012,999,77424,.14618884E-3,.634E-5,0
ZIYUAN 1-02C (ZY 1-02C),2011-079A,2026-07-02T16:14:26.192256,14.38228070,.00051111,98.4068,250.6613,260.5539,250.8978,0,U,38038,999,76143,.24017886E-3,.687E-5,0
ARIRANG-3 (KOMPSAT-3),2012-025B,2026-07-02T15:14:08.085120,14.62220210,.00067528,98.1178,140.8288,70.8826,289.3106,0,U,38338,999,75360,.11481364E-3,.532E-5,0
EXACTVIEW-1 (ADS-1B),2012-039C,2026-07-02T14:49:57.201024,14.24989248,.00118069,98.9795,301.3580,124.4875,235.7420,0,U,38709,999,72490,.84067405E-4,.15E-5,0
SPOT 6,2012-047A,2026-07-02T15:11:57.452640,14.58532789,.00012573,98.2116,250.7615,76.2523,283.8816,0,U,38755,999,73530,.13566065E-3,.585E-5,0
PLEIADES 1B,2012-068A,2026-07-02T15:38:53.888640,14.58570895,.00017093,98.1947,258.4910,83.4065,276.7329,0,U,39019,999,72310,.13189673E-3,.568E-5,0
GOKTURK 2,2012-073A,2026-07-02T14:38:15.332352,14.75558026,.00010284,97.6808,20.2675,63.6892,296.4423,0,U,39030,999,72678,.58969721E-4,.355E-5,0
LANDSAT 8,2013-008A,2026-07-02T14:42:30.012768,14.57105105,.00013514,98.2297,253.5645,93.5105,266.6248,0,U,39084,999,70014,.99561192E-4,.403E-5,0
SARAL,2013-009A,2026-07-02T13:02:21.736032,14.32859500,.00009985,98.5558,9.9159,200.3085,159.8059,0,U,39086,999,69780,-.3677398E-5,-.54E-6,0
GAOFEN-1,2013-018A,2026-07-02T15:35:14.691840,14.76508511,.00159892,97.9094,255.4033,212.5855,147.4370,0,U,39150,999,71052,.16742393E-3,.1118E-4,0
VNREDSAT 1,2013-021B,2026-07-02T14:16:17.142240,14.64874152,.00017105,97.9072,236.4195,81.2687,278.8711,0,U,39160,999,70254,.19329912E-3,.987E-5,0
ARIRANG-5 (KOMPSAT-5),2013-042A,2026-07-02T15:54:07.438176,15.04543471,.00051721,97.6198,10.1442,85.5018,274.6799,0,U,39227,999,70618,.17361836E-3,.2373E-4,0
SKYSAT-A,2013-066C,2026-07-01T20:57:27.732096,15.13054240,.00197054,97.3804,231.8027,262.5520,97.3473,0,U,39418,999,69070,.20304589E-3,.3541E-4,0
DUBAISAT-2,2013-066D,2026-07-02T13:47:47.790816,15.10298424,.00106702,97.4567,173.3171,350.1415,9.9603,0,U,39419,999,68871,.28345429E-3,.4586E-4,0
GPM-CORE,2014-009C,2026-07-02T14:49:43.172256,15.44891480,.00112467,64.9711,256.4369,257.8783,102.1097,0,U,39574,999,70019,.22419244E-3,.10372E-3,0
SENTINEL-1A,2014-016A,2026-07-02T14:10:05.421792,14.59199527,.0001399,98.1773,190.8982,84.9400,275.1959,0,U,39634,999,65226,.487988E-6,-.43E-6,0
KAZEOSAT 1,2014-024A,2026-07-02T15:11:48.757344,14.42086933,.00011655,98.3205,255.6965,77.5473,282.5847,0,U,39731,999,64078,.14808027E-3,.444E-5,0
