DUBAISAT-1              
1 35682U 09041B   26183.35112952  .00001027  00000+0  15962-3 0  9991
2 35682  98.0071 316.4441 0010902  29.3148 330.8670 14.75149388907332
OCEANSAT-2              
1 35931U 09051A   26183.56902994 -.00000225  00000+0 -12807-3 0  9991
2 35931  98.2318 168.8852 0016466 190.2484 169.8349 13.99659243881483
WORLDVIEW-2 (WV-2)      
1 35946U 09055A   26183.61188303  .00000162  00000+0  68198-4 0  9990
2 35946  98.4763 256.8507 0004688 161.6702 198.4655 14.37904024877866
SMOS                    
1 36036U 09059A   26183.54801728  .00000287  00000+0  10553-3 0  9999
2 36036  98.4425  10.6579 0001305  86.9847 273.1491 14.39781028875663
YAOGAN-7                
1 36110U 09069A   26183.65957383  .00000579  00000+0  87169-4 0  9996
2 36110  98.0051  69.4298 0024437 352.8193   7.2664 14.78025724891918
TANDEM-X                
1 36605U 10030A   26182.61687690  .00000599  00000+0  31706-4 0  9999
2 36605  97.4457 190.1177 0001792  96.8129 263.3310 15.19152803888836
CARTOSAT-2B             
1 36795U 10035A   26183.56542737  .00001106  00000+0  15807-3 0  9999
2 36795  97.9944 234.0169 0012037 135.6802 224.5375 14.78604570862126
YAOGAN-10               
1 36834U 10038A   26183.65843122  .00002253  00000+0  26794-3 0  9999
2 36834  97.8966 206.9393 0001755  85.4736  58.6693 14.85398143859504
COSMO-SKYMED 4          
1 37216U 10060A   26183.63361872  .00000207  00000+0  32547-4 0  9995
2 37216  97.8884   7.0093 0001466  84.0675 276.0705 14.82157546846852
RESOURCESAT-2           
1 37387U 11015A   26183.57324055  .00000119  00000+0  74417-4 0  9994
2 37387  98.7638 250.9084 0010834 207.5276 152.5329 14.21603664788366
HAIYANG-2A              
1 37781U 11043A   26182.23608220  .00000161  00000+0  21773-3 0  9997
2 37781  99.3390 184.5963 0004752  61.7209 298.4419 13.73990655748587
RASAT                   
1 37791U 11044D   26183.58980252  .00001013  00000+0  18398-3 0  9992
2 37791  98.0586 274.7519 0021354 140.4618 332.9406 14.68182954795443
SRMSAT                  
1 37841U 11058D   26183.56263183  .00000399  00000+0  72828-4 0  9993
2 37841  19.9731 326.4081 0011821  13.5504  59.6043 14.11578853759999
PLEIADES 1A             
1 38012U 11076F   26183.64997961  .00000634  00000+0  14619-3 0  9996
2 38012  98.1977 258.5451 0001768  86.0988  81.8611 14.58541588774246
ZIYUAN 1-02C (ZY 1-02C) 
1 38038U 11079A   26183.67669204  .00000687  00000+0  24018-3 0  9998
2 38038  98.4068 250.6613 0005111 260.5539 250.8978 14.38228070761435
ARIRANG-3 (KOMPSAT-3)   
1 38338U 12025B   26183.63481580  .00000532  00000+0  11481-3 0  9997
2 38338  98.1178 140.8288 0006752  70.8826 289.3106 14.62220210753603
EXACTVIEW-1 (ADS-1B)    
1 38709U 12039C   26183.61802316  .00000150  00000+0  84067-4 0  9993
2 38709  98.9795 301.3580 0011806 124.4875 235.7420 14.24989248724909
SPOT 6                  
1 38755U 12047A   26183.63330385  .00000585  00000+0  13566-3 0  9994
2 38755  98.2116 250.7615 0001257  76.2523 283.8816 14.58532789735309
PLEIADES 1B             
1 39019U 12068A   26183.65201260  .00000568  00000+0  13190-3 0  9996
2 39019  98.1947 258.4910 0001709  83.4065 276.7329 14.58570895723105
GOKTURK 2               
1 39030U 12073A   26183.60989968  .00000355  00000+0  58970-4 0  9998
2 39030  97.6808  20.2675 0001028  63.6892 296.4423 14.75558026726785
LANDSAT 8               
1 39084U 13008A   26183.61284737  .00000403  00000+0  99561-4 0  9994
2 39084  98.2297 253.5645 0001351  93.5105 266.6248 14.57105105700141
SARAL                   
1 39086U 13009A   26183.54330713 -.00000054  00000+0 -36774-5 0  9997
2 39086  98.5558   9.9159 0000998 200.3085 159.8059 14.32859500697809
GAOFEN-1                
1 39150U 13018A   26183.64947560  .00001118  00000+0  16742-3 0  9995
2 39150  97.9094 255.4033 0015989 212.5855 147.4370 14.76508511710529
VNREDSAT 1              
1 39160U 13021B   26183.59464285  .00000987  00000+0  19330-3 0  9991
2 39160  97.9072 236.4195 0001710  81.2687 278.8711 14.64874152702540
ARIRANG-5 (KOMPSAT-5)   
1 39227U 13042A   26183.66258609  .00002373  00000+0  17362-3 0  9991
2 39227  97.6198  10.1442 0005172  85.5018 274.6799 15.04543471706189
SKYSAT-A                
1 39418U 13066C   26182.87323764  .00003541  00000+0  20305-3 0  9995
2 39418  97.3804 231.8027 0019705 262.5520  97.3473 15.13054240690705
DUBAISAT-2              
1 39419U 13066D   26183.57485869  .00004586  00000+0  28345-3 0  9991
2 39419  97.4567 173.3171 0010670 350.1415   9.9603 15.10298424688715
GPM-CORE                
1 39574U 14009C   26183.61786079  .00010372  00000+0  22419-3 0  9999
2 39574  64.9711 256.4369 0011246 257.8783 102.1097 15.44891480700198
SENTINEL-1A             
1 39634U 14016A   26183.59034053 -.00000043  00000+0  48799-6 0  9996
2 39634  98.1773 190.8982 0001399  84.9400 275.1959 14.59199527652267
KAZEOSAT 1              
1 39731U 14024A   26183.63320321  .00000444  00000+0  14808-3 0  9999
2 39731  98.3205 255.6965 0001165  77.5473 282.5847 14.42086933640787
